ZHUHAI-1 01 (CAS-4A)    
1 42761U 17034D   23177.15661063  .00010375  00000+0  51681-3 0  9992
2 42761  43.0151  64.3489 0011172 168.4051 191.7056 15.17601901333006
MAX VALIER SAT          
1 42778U 17036P   23177.39883026  .00028700  00000+0  73372-3 0  9995
2 42778  97.1540 212.0265 0009810  77.8994 282.3351 15.39357395334145
RADFXSAT (FOX-1B)       
1 43017U 17073E   23176.66979277  .00010696  00000+0  73960-3 0  9994
2 43017  97.6295  60.6706 0233985  41.6239 320.2526 14.86261487302445
FOX-1D (AO-92)          
1 43137U 18004AC  23176.48176102  .00043051  00000+0  85889-3 0  9992
2 43137  97.3278 255.7661 0006487 113.6322 246.5609 15.46713330303585
DIWATA-2B               
1 43678U 18084H   23177.36779775  .00001907  00000+0  18689-3 0  9991
2 43678  98.0244 321.5225 0010682 126.4577 233.7628 14.93467688253632
ES'HAIL 2               
1 43700U 18090A   23177.32643122  .00000161  00000+0  00000+0 0  9991
2 43700   0.0198 296.3011 0001839 195.4049 285.8207  1.00273906 17029
FOX-1CLIFF (AO-95)      
1 43770U 18099N   23176.69811286  .00006235  00000+0  50578-3 0  9991
2 43770  97.5686 238.0043 0013858 111.6135 248.6567 14.99933717248888
ITASAT 1                
1 43786U 18099AE  23176.43525500  .00005954  00000+0  48746-3 0  9992
2 43786  97.5725 238.7819 0014267 100.5254 259.7578 14.99592929248882
JY1SAT (JO-97)          
1 43803U 18099AX  23176.11561206  .00008380  00000+0  65975-3 0  9999
2 43803  97.5706 238.4794 0015528  68.9112 291.3771 15.00961323248889
UWE-4                   
1 43880U 18111E   23176.68305409  .00007755  00000+0  58889-3 0  9993
2 43880  97.6342  81.7278 0019221 142.0449 218.2135 15.02314937243644
NEXUS (FO-99)           
1 43937U 19003F   23176.73228201  .00065456  00000+0  10050-2 0  9996
2 43937  97.0847 203.8389 0010792 229.6844 130.3469 15.53999693247378
JAISAT-1                
1 44419U 19038F   23176.92163389  .00025915  00000+0  87121-3 0  9996
2 44419  97.6735 158.9355 0011886 268.0362  91.9517 15.30737131219878
DUCHIFAT-3              
1 44854U 19089C   23176.95672329  .00009084  00000+0  60879-3 0  9997
2 44854  36.9631  38.8721 0008604  17.4317 342.6721 15.06401621194156
CAS-6 (TIANQIN 1)       
1 44881U 19093C   23177.34074835  .00001335  00000+0  17223-3 0  9990
2 44881  97.8615 255.6362 0015781  52.1451 308.1188 14.82562961190151
RS-44 & BREEZE-KM R/B   
1 44909U 19096E   23177.37002511  .00000058  00000+0  18481-3 0  9997
2 44909  82.5220 341.8423 0217790 165.2374 195.5225 12.79721746163382
BY70-2                  
1 45857U 20042B   23177.40642930  .00021813  00000+0  22134-2 0  9993
2 45857  97.9248 257.3373 0007257 337.3492  22.7405 14.90852813160910
SALSAT                  
1 46495U 20068K   23172.83279536  .00004036  00000+0  26739-3 0  9994
2 46495  97.7704 120.8847 0017405 103.1112 257.2059 15.07774126149778
RADFXSAT-2 (AO-109)     
1 47311U 21002C   23177.07791060  .00028369  00000+0  72142-3 0  9997
2 47311  60.6816  24.3519 0010324 192.1946 167.8901 15.39461017135661
UVSQ-SAT                
1 47438U 21006AB  23176.69514632  .00018434  00000+0  74619-3 0  9999
2 47438  97.3834 233.6799 0010677  60.1399 300.0898 15.24688382133945
DIY-1 (ARDUIQUBE)       
1 47963U 21022AH  23176.50071793  .00426169  00000+0  36360-2 0  9994
2 47963  97.4913  85.6651 0007676 166.8375 193.3088 15.68200167123898
XW-3 (CAS-9)            
1 50466U 21131B   23177.34852988  .00000745  00000+0  25610-3 0  9998
2 50466  98.5519 258.8650 0005482 109.8311 250.3468 14.38937919 78676
TEVEL-3                 
1 50988U 22002E   23177.36376714  .00022755  00000+0  89903-3 0  9995
2 50988  97.4324 244.2674 0007961 191.2119 168.8943 15.25483327 80161
TEVEL-8                 
1 50989U 22002F   23177.31731830  .00023157  00000+0  91668-3 0  9993
2 50989  97.4341 244.2815 0007998 190.1994 169.9083 15.25414435 80157
TEVEL-5                 
1 50998U 22002Q   23177.36899063  .00024009  00000+0  92433-3 0  9999
2 50998  97.4320 244.6669 0009237 187.1914 172.9193 15.26325009 80190
TEVEL-6                 
1 50999U 22002R   23177.36751350  .00023818  00000+0  91703-3 0  9992
2 50999  97.4318 244.6599 0009237 187.0299 173.0811 15.26325344 80196
TEVEL-1                 
1 51013U 22002AF  23177.37384622  .00023238  00000+0  91926-3 0  9998
2 51013  97.4319 244.2192 0007898 190.7895 169.3174 15.25437767 80163
TEVEL-7                 
1 51062U 22002CG  23177.31820422  .00023381  00000+0  92496-3 0  9991
2 51062  97.4338 244.2552 0007977 189.7876 170.3207 15.25434079 80154
TEVEL-4                 
1 51063U 22002CH  23177.32459665  .00023280  00000+0  92248-3 0  9993
2 51063  97.4337 244.2446 0007986 190.0838 170.0241 15.25379431 80154
TEVEL-2                 
1 51069U 22002CP  23177.36557687  .00023033  00000+0  90981-3 0  9994
2 51069  97.4321 244.2402 0007926 190.9393 169.1674 15.25488026 80165
GREENCUBE               
1 53106U 22080B   23172.41016717 -.00000003  00000+0  00000+0 0  9991
2 53106  70.1617 318.2520 0008546 184.7855 175.2724  6.42556995 22026
RS29S (SXC3-2110 CYCLO*)
1 53373U 22096D   23177.36932797  .00034483  00000+0  87503-3 0  9993
2 53373  97.4123  83.7726 0003455 107.8246 252.3377 15.39593256 49108
RS32S (SXC3-212 MONITO*)
1 53374U 22096E   23177.40866144  .00032525  00000+0  84997-3 0  9990
2 53374  97.4100  83.6760 0003946 104.4018 255.7665 15.38701345 49102
RS34S (SXC3-218 KUZBAS*)
1 53375U 22096F   23177.37665288  .00027120  00000+0  75836-3 0  9990
2 53375  97.4130  83.3100 0003734 101.7216 258.4448 15.36641106 49077
RS23S (SXC3-21 UTMN)    
1 53376U 22096G   23177.39593759  .00027912  00000+0  76687-3 0  9990
2 53376  97.4124  83.4293 0003521 103.4025 256.7612 15.37184783 49085
RS28S (SXC3-214 MIET-A*)
1 53377U 22096H   23177.38917663  .00023717  00000+0  67414-3 0  9991
2 53377  97.4137  83.3019 0003596 100.7659 259.3990 15.36156960 49072
RS26S (KAI-1)           
1 53378U 22096J   23177.37159175  .00021291  00000+0  63511-3 0  9996
2 53378  97.4152  83.0379 0003327  98.5557 261.6063 15.34661632 49059
RS19S (SXC3-219 ISOI)   
1 53381U 22096M   23177.39704899  .00026534  00000+0  73318-3 0  9992
2 53381  97.4125  83.5760 0004514  60.5386 299.6308 15.37014313 49098
RS21S (CUBESX-HSE-2)    
1 53383U 22096P   23177.36713977  .00027421  00000+0  74624-3 0  9995
2 53383  97.4128  83.6275 0004963  58.7429 301.4301 15.37478248 49096
RS30S (SXC3-217 SIREN)  
1 53384U 22096Q   23177.40808032  .00023571  00000+0  67556-3 0  9996
2 53384  97.4142  83.4357 0004813  54.2733 305.8957 15.35894536 49089
RS20S (GEOSCAN-EDELVEIS)
1 53385U 22096R   23177.39158435  .00036566  00000+0  88245-3 0  9996
2 53385  97.4111  84.3333 0004893  51.5548 308.6137 15.41103520 49176
RS33S (SXC3-215 VIZARD) 
1 53386U 22096S   23177.41305515  .00050800  00000+0  10680-2 0  9997
2 53386  97.4112  85.0637 0005176  59.0525 301.1232 15.45148742 49214
CAS-5A (FO-118)         
1 54684U 22167C   23177.39447628  .00013481  00000+0  73911-3 0  9998
2 54684  97.5635 314.9099 0012372 305.0908  54.9163 15.14241271 30075
